[{"OBJECT_NAME":"STARLINK-31547","OBJECT_ID":"2024-060S","EPOCH":"2026-03-09T13:19:48.616320","MEAN_MOTION":15.2757097,"ECCENTRICITY":0.00011919,"INCLINATION":43.0032,"RA_OF_ASC_NODE":249.2555,"ARG_OF_PERICENTER":266.1269,"MEAN_ANOMALY":93.9446,"EPHEMERIS_TYPE":0,"CLASSIFICATION_TYPE":"U","NORAD_CAT_ID":59364,"ELEMENT_SET_NO":999,"REV_AT_EPOCH":11017,"BSTAR":3.831808e-6,"MEAN_MOTION_DOT":-1.57e-6,"MEAN_MOTION_DDOT":0},{"OBJECT_NAME":"OBJECT E","OBJECT_ID":"2024-174E","EPOCH":"2026-03-09T23:40:24.424320","MEAN_MOTION":15.26241811,"ECCENTRICITY":0.00122518,"INCLINATION":97.4515,"RA_OF_ASC_NODE":80.1669,"ARG_OF_PERICENTER":217.7524,"MEAN_ANOMALY":142.2856,"EPHEMERIS_TYPE":0,"CLASSIFICATION_TYPE":"U","NORAD_CAT_ID":61242,"ELEMENT_SET_NO":999,"REV_AT_EPOCH":8070,"BSTAR":0.00031155901,"MEAN_MOTION_DOT":8.013e-5,"MEAN_MOTION_DDOT":0}]
